NORAD_CAT_ID,OBJECT_NAME,OBJECT_TYPE,EPOCH,MEAN_MOTION,ECCENTRICITY,INCLINATION,RA_OF_ASC_NODE,ARG_OF_PERICENTER,MEAN_ANOMALY,BSTAR,MEAN_MOTION_DOT,MEAN_MOTION_DDOT,TLE_LINE0,TLE_LINE1,TLE_LINE2,SEMIMAJOR_AXIS,PERIOD,APOGEE,PERIGEE,DECAYED
52666.0,STARLINK-4079,PAYLOAD,2022-05-24 15:13:15,15.8016909,0.0001382,53.2112,267.2384,40.9764,319.1363,-0.00067178,-0.0012718,0.0,0 STARLINK-4079,1 52666U 22017L   22144.63420324 -.00127180  00000-0 -67178-3 0  9997,2 52666  53.2112 267.2384 0001382  40.9764 319.1363 15.80169090  1733,6708.099,91.129,330.891,329.037,0.0
52666.0,STARLINK-4079,PAYLOAD,2022-05-24 20:00:01,15.79546025,0.0001564,53.2168,266.248,33.0756,20.262,-0.0052196,-0.00876765,0.0,0 STARLINK-4079,1 52666U 22053L   22144.83335648 -.00876765  00000-0 -52196-2 0  9996,2 52666  53.2168 266.2480 0001564  33.0756  20.2620 15.79546025  1760,6709.863,91.165,332.777,330.6790000000001,0.0
52666.0,STARLINK-4079,PAYLOAD,2022-05-24 22:00:00,15.79388788,0.0001605,53.2172,265.8314,36.9992,130.3863,-0.0052711,-0.00878847,0.0,0 STARLINK-4079,1 52666U 22053L   22144.91667824 -.00878847  00000-0 -52711-2 0  9995,2 52666  53.2172 265.8314 0001605  36.9992 130.3863 15.79388788  1308,6710.308000000001,91.175,333.25,331.096,0.0
52666.0,STARLINK-4079,PAYLOAD,2022-05-25 14:00:01,15.78130228,0.0001909,53.2175,262.5051,23.4247,335.1597,-0.0055767,-0.00878161,0.0,0 STARLINK-4079,1 52666U 22053L   22145.58334491 -.00878161  00000-0 -55767-2 0  9993,2 52666  53.2175 262.5051 0001909  23.4247 335.1597 15.78130228  1306,6713.875,91.247,337.022,334.459,0.0
52666.0,STARLINK-4079,PAYLOAD,2022-05-25 20:00:01,15.77657908,0.0001274999999999,53.2172,261.2597,41.2081,298.2957,-0.0056828,-0.00875961,0.0,0 STARLINK-4079,1 52666U 22053L   22145.83334491 -.00875961  00000-0 -56828-2 0  9995,2 52666  53.2172 261.2597 0001275  41.2081 298.2957 15.77657908  1918,6715.215,91.275,337.9369999999999,336.224,0.0
52666.0,STARLINK-4079,PAYLOAD,2022-05-25 22:00:00,15.7750019,0.0001421,53.2171,260.8439,39.8929,53.1573,-0.0057256999999999,-0.00876339,0.0,0 STARLINK-4079,1 52666U 22053L   22145.91667824 -.00876339  00000-0 -57257-2 0  9990,2 52666  53.2171 260.8439 0001421  39.8929  53.1573 15.77500190  1309,6715.663000000001,91.284,338.482,336.574,0.0
52666.0,STARLINK-4079,PAYLOAD,2022-05-26 14:00:01,15.76241438,0.0001927,53.2172,257.5274,27.3904,252.3216,-0.0060577,-0.00876551,0.0,0 STARLINK-4079,1 52666U 22053L   22146.58334491 -.00876551  00000-0 -60577-2 0  9990,2 52666  53.2172 257.5274 0001927  27.3904 252.3216 15.76241438  1309,6719.238,91.357,342.398,339.80800000000005,0.0
52666.0,STARLINK-4079,PAYLOAD,2022-05-26 20:00:01,15.75769673,0.0001524,53.2171,256.2851,38.203,220.7268,-0.0061763,-0.00875189,0.0,0 STARLINK-4079,1 52666U 22053L   22146.83334491 -.00875189  00000-0 -61763-2 0  9992,2 52666  53.2171 256.2851 0001524  38.2030 220.7268 15.75769673  2075,6720.579000000002,91.384,343.468,341.42,0.0
52666.0,STARLINK-4079,PAYLOAD,2022-05-26 22:00:00,15.75612443,0.0001464,53.2173,255.8708,34.1323,337.7763,-0.0062256,-0.00875957,0.0,0 STARLINK-4079,1 52666U 22053L   22146.91667824 -.00875957  00000-0 -62256-2 0  9991,2 52666  53.2173 255.8708 0001464  34.1323 337.7763 15.75612443  1302,6721.026,91.393,343.875,341.907,0.0
52666.0,STARLINK-4079,PAYLOAD,2022-05-27 14:00:01,15.743531900000002,0.0002299,53.2175,252.5633,12.4021,181.6314,-0.0065727,-0.0087539,0.0,0 STARLINK-4079,1 52666U 22053L   22147.58334491 -.00875390  00000-0 -65727-2 0  9993,2 52666  53.2175 252.5633 0002299  12.4021 181.6314 15.74353190  2192,6724.609,91.466,348.02,344.92800000000005,0.0
52666.0,STARLINK-4079,PAYLOAD,2022-05-27 22:00:01,15.73591425,0.0001534,53.2173,250.9109,26.9226,257.1296,-0.0038962,-0.00523502,0.0,0 STARLINK-4079,1 52666U 22053L   22147.91668981 -.00523502  00000-0 -38962-2 0  9990,2 52666  53.2173 250.9109 0001534  26.9226 257.1296 15.73591425  1302,6726.779,91.51,349.676,347.61300000000006,0.0
52666.0,STARLINK-4079,PAYLOAD,2022-05-28 04:00:00,15.73206093,0.0001573,53.2172,249.672,40.6918,220.2244,-2.439800000000001e-05,-4.044e-05,0.0,0 STARLINK-4079,1 52666U 22053L   22148.16667824 -.00004044  00000-0 -24398-4 0  9998,2 52666  53.2172 249.6720 0001573  40.6918 220.2244 15.73206093  2285,6727.878000000002,91.533,350.801,348.685,0.0
52666.0,STARLINK-4079,PAYLOAD,2022-05-28 12:00:00,15.73255484,0.0001453999999999,53.2146,248.0196,33.5454,316.3518,0.00013954,0.00019054,0.0,0 STARLINK-4079,1 52666U 22053L   22148.50001157  .00019054  00000-0  13954-3 0  9997,2 52666  53.2146 248.0196 0001454  33.5454 316.3518 15.73255484  2346,6727.736999999999,91.53,350.58,348.624,0.0
52666.0,STARLINK-4079,PAYLOAD,2022-05-28 14:00:01,15.73274167,0.0001564999999999,53.2148,247.6075,33.2336,68.9084,-0.00011721,-0.0001709,0.0,0 STARLINK-4079,1 52666U 22053L   22148.58334491 -.00017090  00000-0 -11721-3 0  9995,2 52666  53.2148 247.6075 0001565  33.2336  68.9084 15.73274167  1300,6727.684,91.529,350.602,348.496,0.0
52666.0,STARLINK-4079,PAYLOAD,2022-05-28 22:00:00,15.73304306,0.0001548,53.2155,245.9572,33.0686,158.1079,-0.00062516,-0.0008783999999999,0.0,0 STARLINK-4079,1 52666U 22053L   22148.91667824 -.00087840  00000-0 -62516-3 0  9999,2 52666  53.2155 245.9572 0001548  33.0686 158.1079 15.73304306  1303,6727.598000000001,91.527,350.504,348.421,0.0
52666.0,STARLINK-4079,PAYLOAD,2022-05-29 04:00:00,15.73202809,0.0001414,53.2157,244.7186,36.5157,131.4268,0.00045545,0.00063794,0.0,0 STARLINK-4079,1 52666U 22053L   22149.16667824  .00063794  00000-0  45545-3 0  9990,2 52666  53.2157 244.7186 0001414  36.5157 131.4268 15.73202809  2441,6727.887,91.533,350.70300000000015,348.801,0.0
52666.0,STARLINK-4079,PAYLOAD,2022-05-29 12:00:00,15.73245282,0.0001665999999999,53.2157,243.0709,35.5515,221.3183,-0.00096169,-0.00133729,0.0,0 STARLINK-4079,1 52666U 22053L   22149.50001157 -.00133729  00000-0 -96169-3 0  9995,2 52666  53.2157 243.0709 0001666  35.5515 221.3183 15.73245282  2492,6727.766,91.531,350.75199999999984,348.51,0.0
52666.0,STARLINK-4079,PAYLOAD,2022-05-29 14:00:01,15.73214365,0.0001736,53.2158,242.6589,35.0245,334.0892,-0.00079521,-0.00110839,0.0,0 STARLINK-4079,1 52666U 22053L   22149.58334491 -.00110839  00000-0 -79521-3 0  9993,2 52666  53.2158 242.6589 0001736  35.0245 334.0892 15.73214365  1303,6727.854,91.532,350.88699999999994,348.551,0.0
52666.0,STARLINK-4079,PAYLOAD,2022-05-29 20:00:01,15.7318086,0.0001773,53.215,241.4215,33.2792,312.5274,-0.00076511,-0.00106569,0.0,0 STARLINK-4079,1 52666U 22053L   22149.83334491 -.00106569  00000-0 -76511-3 0  9992,2 52666  53.2150 241.4215 0001773  33.2792 312.5274 15.73180860  2540,6727.95,91.534,351.0080000000001,348.622,0.0
52666.0,STARLINK-4079,PAYLOAD,2022-05-29 20:03:39,15.73183062,0.0001176,53.2135,241.4071,73.1235,286.9913,-5.4159e-05,-8.207e-05,0.0,0 STARLINK-4079,1 52666U 22053L   22149.83587151 -.00008207  00000-0 -54159-4 0  9990,2 52666  53.2135 241.4071 0001176  73.1235 286.9913 15.73183062  2557,6727.943,91.534,350.6,349.017,0.0
52666.0,STARLINK-4079,PAYLOAD,2022-05-30 04:00:00,15.73041858,0.0001703,53.2152,239.7705,45.9856,28.6867,0.0013635,0.00193903,0.0,0 STARLINK-4079,1 52666U 22053L   22150.16667824  .00193903  00000-0  13635-2 0  9992,2 52666  53.2152 239.7705 0001703  45.9856  28.6867 15.73041858  2603,6728.346,91.542,351.357,349.065,0.0
52666.0,STARLINK-4079,PAYLOAD,2022-05-30 12:49:59,15.7307889,0.0001957,53.2146,237.9491,33.0834,327.0308,-0.00030103,-0.0004244,0.0,0 STARLINK-4079,1 52666U 22053L   22150.53471863 -.00042440  00000-0 -30103-3 0  9990,2 52666  53.2146 237.9491 0001957  33.0834 327.0308 15.73078890  2661,6728.24,91.54,351.422,348.789,0.0
52666.0,STARLINK-4079,PAYLOAD,2022-05-30 20:27:23,15.73201376,0.000183,53.2147,236.3774,55.2324,304.8868,0.00040847,0.00057101,0.0,0 STARLINK-4079,1 52666U 22053L   22150.85235255  .00057101  00000-0  40847-3 0  9992,2 52666  53.2147 236.3774 0001830  55.2324 304.8868 15.73201376  2716,6727.891,91.533,350.987,348.525,0.0
52666.0,STARLINK-4079,PAYLOAD,2022-05-30 22:00:00,15.7322964,0.0001889,53.2154,236.0606,40.5854,324.0615,-0.00029588,-0.00041994,0.0,0 STARLINK-4079,1 52666U 22053L   22150.91667824 -.00041994  00000-0 -29588-3 0  9994,2 52666  53.2154 236.0606 0001889  40.5854 324.0615 15.73229640  1306,6727.811,91.531,350.94699999999995,348.405,0.0
52666.0,STARLINK-4079,PAYLOAD,2022-05-31 04:00:00,15.7317843,0.0001818,53.2155,234.8222,42.283,299.0718,0.00061887,0.0008705999999999,0.0,0 STARLINK-4079,1 52666U 22053L   22151.16667824  .00087060  00000-0  61887-3 0  9992,2 52666  53.2155 234.8222 0001818  42.2830 299.0718 15.73178430  2757,6727.956999999999,91.534,351.045,348.599,0.0
52666.0,STARLINK-4079,PAYLOAD,2022-05-31 05:36:16,15.7322247,0.0001853,53.2154,234.4913,54.5228,305.5965,0.00023188,0.00032079,0.0,0 STARLINK-4079,1 52666U 22053L   22151.23351913  .00032079  00000-0  23188-3 0  9991,2 52666  53.2154 234.4913 0001853  54.5228 305.5965 15.73222470  2778,6727.831,91.532,350.9430000000001,348.449,0.0
52666.0,STARLINK-4079,PAYLOAD,2022-05-31 11:42:11,15.73227117,0.0002117,53.2153,233.2342,52.038,308.0831,0.00011692,0.00015839,0.0,0 STARLINK-4079,1 52666U 22053L   22151.48762827  .00015839  00000-0  11692-3 0  9990,2 52666  53.2153 233.2342 0002117  52.0380 308.0831 15.73227117  2814,6727.818,91.532,351.107,348.259,0.0
52666.0,STARLINK-4079,PAYLOAD,2022-05-31 19:19:34,15.73252142,0.0002026,53.2152,231.6626,45.0823,315.0361,0.00023784,0.00032966,0.0,0 STARLINK-4079,1 52666U 22053L   22151.80526053  .00032966  00000-0  23784-3 0  9990,2 52666  53.2152 231.6626 0002026  45.0823 315.0361 15.73252142  2860,6727.746999999999,91.53,350.975,348.24800000000016,0.0
52666.0,STARLINK-4079,PAYLOAD,2022-05-31 20:51:03,15.73230019,0.0002975,53.2152,231.3483,39.4309,320.6927,0.0001142,0.00015457,0.0,0 STARLINK-4079,1 52666U 22053L   22151.86879273  .00015457  00000-0  11420-3 0  9991,2 52666  53.2152 231.3483 0002975  39.4309 320.6927 15.73230019  2877,6727.81,91.531,351.676,347.673,0.0
